[{"OBJECT_NAME":"SPACEMOBILE-005","OBJECT_ID":"2024-163B","EPOCH":"2026-03-09T07:38:32.614656","MEAN_MOTION":15.21086957,"ECCENTRICITY":0.00107724,"INCLINATION":52.9748,"RA_OF_ASC_NODE":48.6908,"ARG_OF_PERICENTER":181.4195,"MEAN_ANOMALY":178.6771,"EPHEMERIS_TYPE":0,"CLASSIFICATION_TYPE":"U","NORAD_CAT_ID":61046,"ELEMENT_SET_NO":999,"REV_AT_EPOCH":8256,"BSTAR":0.00070863905,"MEAN_MOTION_DOT":0.00015682,"MEAN_MOTION_DDOT":0},{"OBJECT_NAME":"ASAP-S","OBJECT_ID":"2011-076G","EPOCH":"2026-03-09T17:04:01.263936","MEAN_MOTION":15.2280587,"ECCENTRICITY":0.00082377,"INCLINATION":98.0168,"RA_OF_ASC_NODE":352.0786,"ARG_OF_PERICENTER":129.3662,"MEAN_ANOMALY":230.8304,"EPHEMERIS_TYPE":0,"CLASSIFICATION_TYPE":"U","NORAD_CAT_ID":38013,"ELEMENT_SET_NO":999,"REV_AT_EPOCH":77768,"BSTAR":0.00058516402,"MEAN_MOTION_DOT":0.00013629,"MEAN_MOTION_DDOT":0}]
